{
    "links": {
        "self": "http://www.neowsapp.com/rest/v1/neo/3441094?api_key=iIulBulltgU6a56xZRHN4H3l9WmuAYTsLGpBGhQ2"
    },
    "id": "3441094",
    "neo_reference_id": "3441094",
    "name": "(2008 XC1)",
    "designation": "2008 XC1",
    "nasa_jpl_url": "http://ssd.jpl.nasa.gov/sbdb.cgi?sstr=3441094",
    "absolute_magnitude_h": 23.7,
    "estimated_diameter": {
        "kilometers": {
            "estimated_diameter_min": 0.0483676488,
            "estimated_diameter_max": 0.1081533507
        },
        "meters": {
            "estimated_diameter_min": 48.3676488219,
            "estimated_diameter_max": 108.1533506775
        },
        "miles": {
            "estimated_diameter_min": 0.0300542543,
            "estimated_diameter_max": 0.0672033557
        },
        "feet": {
            "estimated_diameter_min": 158.6865169607,
            "estimated_diameter_max": 354.8338390368
        }
    },
    "is_potentially_hazardous_asteroid": false,
    "close_approach_data": [
        {
            "close_approach_date": "2000-04-11",
            "close_approach_date_full": "2000-Apr-11 11:10",
            "epoch_date_close_approach": 955451400000,
            "relative_velocity": {
                "kilometers_per_second": "20.5481019288",
                "kilometers_per_hour": "73973.1669438517",
                "miles_per_hour": "45964.0492046394"
            },
            "miss_distance": {
                "astronomical": "0.2938000212",
                "lunar": "114.2882082468",
                "kilometers": "43951857.377474844",
                "miles": "27310417.7734630872"
            },
            "orbiting_body": "Earth"
        },
        {
            "close_approach_date": "2008-12-12",
            "close_approach_date_full": "2008-Dec-12 18:14",
            "epoch_date_close_approach": 1229105640000,
            "relative_velocity": {
                "kilometers_per_second": "12.5040141264",
                "kilometers_per_hour": "45014.4508551055",
                "miles_per_hour": "27970.2291993849"
            },
            "miss_distance": {
                "astronomical": "0.0106149468",
                "lunar": "4.1292143052",
                "kilometers": "1587973.431443316",
                "miles": "986720.9354411208"
            },
            "orbiting_body": "Earth"
        },
        {
            "close_approach_date": "2011-11-17",
            "close_approach_date_full": "2011-Nov-17 11:37",
            "epoch_date_close_approach": 1321529820000,
            "relative_velocity": {
                "kilometers_per_second": "23.8772696405",
                "kilometers_per_hour": "85958.1707056488",
                "miles_per_hour": "53411.0644587405"
            },
            "miss_distance": {
                "astronomical": "0.3914027909",
                "lunar": "152.2556856601",
                "kilometers": "58553023.830695383",
                "miles": "36383161.8987589654"
            },
            "orbiting_body": "Earth"
        },
        {
            "close_approach_date": "2067-11-14",
            "close_approach_date_full": "2067-Nov-14 16:17",
            "epoch_date_close_approach": 3088513020000,
            "relative_velocity": {
                "kilometers_per_second": "26.1271813241",
                "kilometers_per_hour": "94057.852766737",
                "miles_per_hour": "58443.891903865"
            },
            "miss_distance": {
                "astronomical": "0.4804137374",
                "lunar": "186.8809438486",
                "kilometers": "71868871.833779338",
                "miles": "44657246.1734893444"
            },
            "orbiting_body": "Earth"
        }
    ],
    "orbital_data": {
        "orbit_id": "16",
        "orbit_determination_date": "2017-04-06 09:01:58",
        "first_observation_date": "2008-12-03",
        "last_observation_date": "2008-12-11",
        "data_arc_in_days": 8,
        "observations_used": 137,
        "orbit_uncertainty": "7",
        "minimum_orbit_intersection": ".00536061",
        "jupiter_tisserand_invariant": "3.557",
        "epoch_osculation": "2459000.5",
        "eccentricity": ".5782383938176898",
        "semi_major_axis": "2.05205821848606",
        "inclination": "4.473988901543689",
        "ascending_node_longitude": "86.3240340284411",
        "orbital_period": "1073.699976735577",
        "perihelion_distance": ".8654793702082906",
        "perihelion_argument": "43.67024721366725",
        "aphelion_distance": "3.238637066763829",
        "perihelion_time": "2459144.042970720989",
        "mean_anomaly": "311.8715930155207",
        "mean_motion": ".335289194188609",
        "equinox": "J2000",
        "orbit_class": {
            "orbit_class_type": "APO",
            "orbit_class_description": "Near-Earth asteroid orbits which cross the Earth’s orbit similar to that of 1862 Apollo",
            "orbit_class_range": "a (semi-major axis) > 1.0 AU; q (perihelion) < 1.017 AU"
        }
    },
    "is_sentry_object": false
}